[{"OBJECT_NAME":"OTB","OBJECT_ID":"2019-036C","EPOCH":"2026-03-09T21:12:23.351040","MEAN_MOTION":14.5700145,"ECCENTRICITY":0.00109838,"INCLINATION":23.9955,"RA_OF_ASC_NODE":249.3204,"ARG_OF_PERICENTER":354.045,"MEAN_ANOMALY":5.991,"EPHEMERIS_TYPE":0,"CLASSIFICATION_TYPE":"U","NORAD_CAT_ID":44341,"ELEMENT_SET_NO":999,"REV_AT_EPOCH":35687,"BSTAR":0.00031296152,"MEAN_MOTION_DOT":1.652e-5,"MEAN_MOTION_DDOT":0},{"OBJECT_NAME":"IRIDIUM 33 DEB","OBJECT_ID":"1997-051SQ","EPOCH":"2026-03-07T11:49:10.922592","MEAN_MOTION":14.5845303,"ECCENTRICITY":0.00141971,"INCLINATION":86.3492,"RA_OF_ASC_NODE":343.294,"ARG_OF_PERICENTER":133.7788,"MEAN_ANOMALY":226.4599,"EPHEMERIS_TYPE":0,"CLASSIFICATION_TYPE":"U","NORAD_CAT_ID":35806,"ELEMENT_SET_NO":999,"REV_AT_EPOCH":87559,"BSTAR":0.0015826939,"MEAN_MOTION_DOT":7.373e-5,"MEAN_MOTION_DDOT":0}]
